H-2A R/B                
1 38341U 12025E   25306.46116499  .00003945  00000+0  36869-3 0  9990
2 38341  98.4521 258.6141 0045975  10.5660 349.6513 14.94004877729211
SHIJIAN-16 (SJ-16)      
1 39358U 13057A   25306.50085838  .00002725  00000+0  27250-3 0  9991
2 39358  74.9732  65.7759 0016076  59.0918 301.1848 14.91763225652539
SL-4 R/B                
1 39679U 14021B   25306.08021430  .00018336  00000+0  45119-3 0  9999
2 39679  51.6079 237.9757 0104988 359.7393   0.3518 15.35112325636643
ALOS-2                  
1 39766U 14029A   25306.56908634  .00002281  00000+0  31236-3 0  9994
2 39766  97.9235  41.9863 0001212 100.8336 259.3012 14.79456387618074
YAOGAN-29               
1 41038U 15069A   25306.53477681  .00000598  00000+0  80620-4 0  9995
2 41038  98.0263 329.5687 0002629  65.6155 294.5332 14.82813883537035
ASTRO-H (HITOMI)        
1 41337U 16012A   25306.47746275  .00003709  00000+0  22311-3 0  9996
2 41337  30.9987  96.8554 0009849 132.9077 227.2388 15.08982272532996
HXMT (HUIYAN)           
1 42758U 17034A   25306.53274170  .00005928  00000+0  31484-3 0  9992
2 42758  43.0157   2.6429 0032339 153.5402 206.7104 15.15581660463237
CZ-2C R/B               
1 43521U 18054D   25306.47524531  .00074946  00000+0  70330-3 0  9995
2 43521  35.1347  92.1445 0024925 113.2664 247.0693 15.65556544408728
SAOCOM 1A               
1 43641U 18076A   25306.50313678  .00000621  00000+0  84596-4 0  9993
2 43641  97.8872 131.5074 0001323  90.7813 269.3552 14.82143912382526
H-2A R/B                
1 43682U 18084L   25306.50823490  .00018194  00000+0  52408-3 0  9995
2 43682  98.8808 132.3131 0029363 102.6419 257.8105 15.35398666386227
SAOCOM 1B               
1 46265U 20059A   25306.66942369  .00000326  00000+0  47479-4 0  9995
2 46265  97.8866 130.7742 0001442  91.3817 268.7561 14.82146489279935
CSS (TIANHE)            
1 48274U 21035A   25306.17586037  .00031797  00000+0  38131-3 0  9994
2 48274  41.4666 263.0710 0006682 308.7013  51.3228 15.60215133257694
