CCSDS_OMM_VERS = 2.0
CREATION_DATE  = 
ORIGINATOR     = 

OBJECT_NAME    = H-2A R/B
OBJECT_ID      = 2012-025E
CENTER_NAME    = EARTH
REF_FRAME      = TEME
TIME_SYSTEM    = UTC
MEAN_ELEMENT_THEORY = SGP/SGP4

EPOCH          = 2025-11-02T11:04:04.655136
MEAN_MOTION    = 14.94004877
ECCENTRICITY   = .0045975
INCLINATION    = 98.4521
RA_OF_ASC_NODE = 258.6141
ARG_OF_PERICENTER = 10.5660
MEAN_ANOMALY   = 349.6513

EPHEMERIS_TYPE = 0
CLASSIFICATION_TYPE = U
NORAD_CAT_ID   = 38341
ELEMENT_SET_NO = 999
REV_AT_EPOCH   = 72921
BSTAR          = .36869E-3
MEAN_MOTION_DOT = .3945E-4
MEAN_MOTION_DDOT = 0

CCSDS_OMM_VERS = 2.0
CREATION_DATE  = 
ORIGINATOR     = 

OBJECT_NAME    = SHIJIAN-16 (SJ-16)
OBJECT_ID      = 2013-057A
CENTER_NAME    = EARTH
REF_FRAME      = TEME
TIME_SYSTEM    = UTC
MEAN_ELEMENT_THEORY = SGP/SGP4

EPOCH          = 2025-11-02T12:01:14.164032
MEAN_MOTION    = 14.91763225
ECCENTRICITY   = .0016076
INCLINATION    = 74.9732
RA_OF_ASC_NODE = 65.7759
ARG_OF_PERICENTER = 59.0918
MEAN_ANOMALY   = 301.1848

EPHEMERIS_TYPE = 0
CLASSIFICATION_TYPE = U
NORAD_CAT_ID   = 39358
ELEMENT_SET_NO = 999
REV_AT_EPOCH   = 65253
BSTAR          = .2725E-3
MEAN_MOTION_DOT = .2725E-4
MEAN_MOTION_DDOT = 0

CCSDS_OMM_VERS = 2.0
CREATION_DATE  = 
ORIGINATOR     = 

OBJECT_NAME    = SL-4 R/B
OBJECT_ID      = 2014-021B
CENTER_NAME    = EARTH
REF_FRAME      = TEME
TIME_SYSTEM    = UTC
MEAN_ELEMENT_THEORY = SGP/SGP4

EPOCH          = 2025-11-02T01:55:30.515520
MEAN_MOTION    = 15.35112325
ECCENTRICITY   = .01049884
INCLINATION    = 51.6079
RA_OF_ASC_NODE = 237.9757
ARG_OF_PERICENTER = 359.7393
MEAN_ANOMALY   = 0.3518

EPHEMERIS_TYPE = 0
CLASSIFICATION_TYPE = U
NORAD_CAT_ID   = 39679
ELEMENT_SET_NO = 999
REV_AT_EPOCH   = 63664
BSTAR          = .45119349E-3
MEAN_MOTION_DOT = .18336E-3
MEAN_MOTION_DDOT = 0

CCSDS_OMM_VERS = 2.0
CREATION_DATE  = 
ORIGINATOR     = 

OBJECT_NAME    = ALOS-2
OBJECT_ID      = 2014-029A
CENTER_NAME    = EARTH
REF_FRAME      = TEME
TIME_SYSTEM    = UTC
MEAN_ELEMENT_THEORY = SGP/SGP4

EPOCH          = 2025-11-02T13:39:29.059776
MEAN_MOTION    = 14.79456387
ECCENTRICITY   = .0001212
INCLINATION    = 97.9235
RA_OF_ASC_NODE = 41.9863
ARG_OF_PERICENTER = 100.8336
MEAN_ANOMALY   = 259.3012

EPHEMERIS_TYPE = 0
CLASSIFICATION_TYPE = U
NORAD_CAT_ID   = 39766
ELEMENT_SET_NO = 999
REV_AT_EPOCH   = 61807
BSTAR          = .31236E-3
MEAN_MOTION_DOT = .2281E-4
MEAN_MOTION_DDOT = 0

CCSDS_OMM_VERS = 2.0
CREATION_DATE  = 
ORIGINATOR     = 

OBJECT_NAME    = YAOGAN-29
OBJECT_ID      = 2015-069A
CENTER_NAME    = EARTH
REF_FRAME      = TEME
TIME_SYSTEM    = UTC
MEAN_ELEMENT_THEORY = SGP/SGP4

EPOCH          = 2025-11-02T12:50:04.716384
MEAN_MOTION    = 14.82813883
ECCENTRICITY   = .0002629
INCLINATION    = 98.0263
RA_OF_ASC_NODE = 329.5687
ARG_OF_PERICENTER = 65.6155
MEAN_ANOMALY   = 294.5332

EPHEMERIS_TYPE = 0
CLASSIFICATION_TYPE = U
NORAD_CAT_ID   = 41038
ELEMENT_SET_NO = 999
REV_AT_EPOCH   = 53703
BSTAR          = .8062E-4
MEAN_MOTION_DOT = .598E-5
MEAN_MOTION_DDOT = 0

CCSDS_OMM_VERS = 2.0
CREATION_DATE  = 
ORIGINATOR     = 

OBJECT_NAME    = ASTRO-H (HITOMI)
OBJECT_ID      = 2016-012A
CENTER_NAME    = EARTH
REF_FRAME      = TEME
TIME_SYSTEM    = UTC
MEAN_ELEMENT_THEORY = SGP/SGP4

EPOCH          = 2025-11-02T11:27:32.781600
MEAN_MOTION    = 15.08982272
ECCENTRICITY   = .0009849
INCLINATION    = 30.9987
RA_OF_ASC_NODE = 96.8554
ARG_OF_PERICENTER = 132.9077
MEAN_ANOMALY   = 227.2388

EPHEMERIS_TYPE = 0
CLASSIFICATION_TYPE = U
NORAD_CAT_ID   = 41337
ELEMENT_SET_NO = 999
REV_AT_EPOCH   = 53299
BSTAR          = .22311E-3
MEAN_MOTION_DOT = .3709E-4
MEAN_MOTION_DDOT = 0

CCSDS_OMM_VERS = 2.0
CREATION_DATE  = 
ORIGINATOR     = 

OBJECT_NAME    = HXMT (HUIYAN)
OBJECT_ID      = 2017-034A
CENTER_NAME    = EARTH
REF_FRAME      = TEME
TIME_SYSTEM    = UTC
MEAN_ELEMENT_THEORY = SGP/SGP4

EPOCH          = 2025-11-02T12:47:08.882880
MEAN_MOTION    = 15.15581660
ECCENTRICITY   = .0032339
INCLINATION    = 43.0157
RA_OF_ASC_NODE = 2.6429
ARG_OF_PERICENTER = 153.5402
MEAN_ANOMALY   = 206.7104

EPHEMERIS_TYPE = 0
CLASSIFICATION_TYPE = U
NORAD_CAT_ID   = 42758
ELEMENT_SET_NO = 999
REV_AT_EPOCH   = 46323
BSTAR          = .31484E-3
MEAN_MOTION_DOT = .5928E-4
MEAN_MOTION_DDOT = 0

CCSDS_OMM_VERS = 2.0
CREATION_DATE  = 
ORIGINATOR     = 

OBJECT_NAME    = CZ-2C R/B
OBJECT_ID      = 2018-054D
CENTER_NAME    = EARTH
REF_FRAME      = TEME
TIME_SYSTEM    = UTC
MEAN_ELEMENT_THEORY = SGP/SGP4

EPOCH          = 2025-11-02T11:24:21.194784
MEAN_MOTION    = 15.65556544
ECCENTRICITY   = .0024925
INCLINATION    = 35.1347
RA_OF_ASC_NODE = 92.1445
ARG_OF_PERICENTER = 113.2664
MEAN_ANOMALY   = 247.0693

EPHEMERIS_TYPE = 0
CLASSIFICATION_TYPE = U
NORAD_CAT_ID   = 43521
ELEMENT_SET_NO = 999
REV_AT_EPOCH   = 40872
BSTAR          = .7033E-3
MEAN_MOTION_DOT = .74946E-3
MEAN_MOTION_DDOT = 0

CCSDS_OMM_VERS = 2.0
CREATION_DATE  = 
ORIGINATOR     = 

OBJECT_NAME    = SAOCOM 1A
OBJECT_ID      = 2018-076A
CENTER_NAME    = EARTH
REF_FRAME      = TEME
TIME_SYSTEM    = UTC
MEAN_ELEMENT_THEORY = SGP/SGP4

EPOCH          = 2025-11-02T12:04:31.017792
MEAN_MOTION    = 14.82143912
ECCENTRICITY   = .0001323
INCLINATION    = 97.8872
RA_OF_ASC_NODE = 131.5074
ARG_OF_PERICENTER = 90.7813
MEAN_ANOMALY   = 269.3552

EPHEMERIS_TYPE = 0
CLASSIFICATION_TYPE = U
NORAD_CAT_ID   = 43641
ELEMENT_SET_NO = 999
REV_AT_EPOCH   = 38252
BSTAR          = .84596E-4
MEAN_MOTION_DOT = .621E-5
MEAN_MOTION_DDOT = 0

CCSDS_OMM_VERS = 2.0
CREATION_DATE  = 
ORIGINATOR     = 

OBJECT_NAME    = H-2A R/B
OBJECT_ID      = 2018-084L
CENTER_NAME    = EARTH
REF_FRAME      = TEME
TIME_SYSTEM    = UTC
MEAN_ELEMENT_THEORY = SGP/SGP4

EPOCH          = 2025-11-02T12:11:51.495360
MEAN_MOTION    = 15.35398666
ECCENTRICITY   = .0029363
INCLINATION    = 98.8808
RA_OF_ASC_NODE = 132.3131
ARG_OF_PERICENTER = 102.6419
MEAN_ANOMALY   = 257.8105

EPHEMERIS_TYPE = 0
CLASSIFICATION_TYPE = U
NORAD_CAT_ID   = 43682
ELEMENT_SET_NO = 999
REV_AT_EPOCH   = 38622
BSTAR          = .52408E-3
MEAN_MOTION_DOT = .18194E-3
MEAN_MOTION_DDOT = 0

CCSDS_OMM_VERS = 2.0
CREATION_DATE  = 
ORIGINATOR     = 

OBJECT_NAME    = SAOCOM 1B
OBJECT_ID      = 2020-059A
CENTER_NAME    = EARTH
REF_FRAME      = TEME
TIME_SYSTEM    = UTC
MEAN_ELEMENT_THEORY = SGP/SGP4

EPOCH          = 2025-11-02T16:03:58.206816
MEAN_MOTION    = 14.82146489
ECCENTRICITY   = .0001442
INCLINATION    = 97.8866
RA_OF_ASC_NODE = 130.7742
ARG_OF_PERICENTER = 91.3817
MEAN_ANOMALY   = 268.7561

EPHEMERIS_TYPE = 0
CLASSIFICATION_TYPE = U
NORAD_CAT_ID   = 46265
ELEMENT_SET_NO = 999
REV_AT_EPOCH   = 27993
BSTAR          = .47479E-4
MEAN_MOTION_DOT = .326E-5
MEAN_MOTION_DDOT = 0

CCSDS_OMM_VERS = 2.0
CREATION_DATE  = 
ORIGINATOR     = 

OBJECT_NAME    = CSS (TIANHE)
OBJECT_ID      = 2021-035A
CENTER_NAME    = EARTH
REF_FRAME      = TEME
TIME_SYSTEM    = UTC
MEAN_ELEMENT_THEORY = SGP/SGP4

EPOCH          = 2025-11-02T04:13:14.335968
MEAN_MOTION    = 15.60215133
ECCENTRICITY   = .00066821
INCLINATION    = 41.4666
RA_OF_ASC_NODE = 263.0710
ARG_OF_PERICENTER = 308.7013
MEAN_ANOMALY   = 51.3228

EPHEMERIS_TYPE = 0
CLASSIFICATION_TYPE = U
NORAD_CAT_ID   = 48274
ELEMENT_SET_NO = 999
REV_AT_EPOCH   = 25769
BSTAR          = .3813083E-3
MEAN_MOTION_DOT = .31797E-3
MEAN_MOTION_DDOT = 0

